{"type":"FeatureCollection","features":[
{"type":"Feature","properties":{"NAME_2":"Lucknow","district":"Lucknow","STATE":"Uttar Pradesh"},"geometry":{"type":"Polygon","coordinates":[[[80.5,26.5],[81.2,26.5],[81.2,27.2],[80.5,27.2],[80.5,26.5]]]}},
{"type":"Feature","properties":{"NAME_2":"Agra","district":"Agra","STATE":"Uttar Pradesh"},"geometry":{"type":"Polygon","coordinates":[[[77.6,26.8],[78.4,26.8],[78.4,27.5],[77.6,27.5],[77.6,26.8]]]}},
{"type":"Feature","properties":{"NAME_2":"Prayagraj","district":"Prayagraj","STATE":"Uttar Pradesh"},"geometry":{"type":"Polygon","coordinates":[[[81.5,25.2],[82.1,25.2],[82.1,25.8],[81.5,25.8],[81.5,25.2]]]}},
{"type":"Feature","properties":{"NAME_2":"Kanpur Nagar","district":"Kanpur Nagar","STATE":"Uttar Pradesh"},"geometry":{"type":"Polygon","coordinates":[[[80.0,26.2],[80.6,26.2],[80.6,26.8],[80.0,26.8],[80.0,26.2]]]}},
{"type":"Feature","properties":{"NAME_2":"Varanasi","district":"Varanasi","STATE":"Uttar Pradesh"},"geometry":{"type":"Polygon","coordinates":[[[82.8,25.1],[83.4,25.1],[83.4,25.6],[82.8,25.6],[82.8,25.1]]]}},
{"type":"Feature","properties":{"NAME_2":"Meerut","district":"Meerut","STATE":"Uttar Pradesh"},"geometry":{"type":"Polygon","coordinates":[[[77.5,28.7],[78.0,28.7],[78.0,29.2],[77.5,29.2],[77.5,28.7]]]}},
{"type":"Feature","properties":{"NAME_2":"Gorakhpur","district":"Gorakhpur","STATE":"Uttar Pradesh"},"geometry":{"type":"Polygon","coordinates":[[[83.1,26.5],[83.8,26.5],[83.8,27.2],[83.1,27.2],[83.1,26.5]]]}},
{"type":"Feature","properties":{"NAME_2":"Ghaziabad","district":"Ghaziabad","STATE":"Uttar Pradesh"},"geometry":{"type":"Polygon","coordinates":[[[77.3,28.6],[77.7,28.6],[77.7,28.9],[77.3,28.9],[77.3,28.6]]]}},
{"type":"Feature","properties":{"NAME_2":"Bareilly","district":"Bareilly","STATE":"Uttar Pradesh"},"geometry":{"type":"Polygon","coordinates":[[[79.2,28.2],[79.8,28.2],[79.8,28.7],[79.2,28.7],[79.2,28.2]]]}},
{"type":"Feature","properties":{"NAME_2":"Aligarh","district":"Aligarh","STATE":"Uttar Pradesh"},"geometry":{"type":"Polygon","coordinates":[[[77.8,27.6],[78.3,27.6],[78.3,28.0],[77.8,28.0],[77.8,27.6]]]}},
{"type":"Feature","properties":{"NAME_2":"Mumbai City","district":"Mumbai City","STATE":"Maharashtra"},"geometry":{"type":"Polygon","coordinates":[[[72.77,18.87],[73.0,18.87],[73.0,19.27],[72.77,19.27],[72.77,18.87]]]}},
{"type":"Feature","properties":{"NAME_2":"Pune","district":"Pune","STATE":"Maharashtra"},"geometry":{"type":"Polygon","coordinates":[[[73.7,18.2],[74.3,18.2],[74.3,18.7],[73.7,18.7],[73.7,18.2]]]}},
{"type":"Feature","properties":{"NAME_2":"Nagpur","district":"Nagpur","STATE":"Maharashtra"},"geometry":{"type":"Polygon","coordinates":[[[78.8,21.0],[79.4,21.0],[79.4,21.5],[78.8,21.5],[78.8,21.0]]]}},
{"type":"Feature","properties":{"NAME_2":"Thane","district":"Thane","STATE":"Maharashtra"},"geometry":{"type":"Polygon","coordinates":[[[72.8,19.1],[73.2,19.1],[73.2,19.6],[72.8,19.6],[72.8,19.1]]]}},
{"type":"Feature","properties":{"NAME_2":"Nashik","district":"Nashik","STATE":"Maharashtra"},"geometry":{"type":"Polygon","coordinates":[[[73.5,19.7],[74.0,19.7],[74.0,20.3],[73.5,20.3],[73.5,19.7]]]}},
{"type":"Feature","properties":{"NAME_2":"Aurangabad","district":"Aurangabad","STATE":"Maharashtra"},"geometry":{"type":"Polygon","coordinates":[[[75.1,19.6],[75.5,19.6],[75.5,20.0],[75.1,20.0],[75.1,19.6]]]}},
{"type":"Feature","properties":{"NAME_2":"Kolkata","district":"Kolkata","STATE":"West Bengal"},"geometry":{"type":"Polygon","coordinates":[[[88.2,22.4],[88.5,22.4],[88.5,22.7],[88.2,22.7],[88.2,22.4]]]}},
{"type":"Feature","properties":{"NAME_2":"Howrah","district":"Howrah","STATE":"West Bengal"},"geometry":{"type":"Polygon","coordinates":[[[88.0,22.4],[88.3,22.4],[88.3,22.7],[88.0,22.7],[88.0,22.4]]]}},
{"type":"Feature","properties":{"NAME_2":"North 24 Parganas","district":"North 24 Parganas","STATE":"West Bengal"},"geometry":{"type":"Polygon","coordinates":[[[88.3,22.7],[89.0,22.7],[89.0,23.2],[88.3,23.2],[88.3,22.7]]]}},
{"type":"Feature","properties":{"NAME_2":"Patna","district":"Patna","STATE":"Bihar"},"geometry":{"type":"Polygon","coordinates":[[[84.8,25.3],[85.3,25.3],[85.3,25.7],[84.8,25.7],[84.8,25.3]]]}},
{"type":"Feature","properties":{"NAME_2":"Gaya","district":"Gaya","STATE":"Bihar"},"geometry":{"type":"Polygon","coordinates":[[[84.5,24.4],[85.1,24.4],[85.1,25.0],[84.5,25.0],[84.5,24.4]]]}},
{"type":"Feature","properties":{"NAME_2":"Jaipur","district":"Jaipur","STATE":"Rajasthan"},"geometry":{"type":"Polygon","coordinates":[[[75.5,26.6],[76.2,26.6],[76.2,27.1],[75.5,27.1],[75.5,26.6]]]}},
{"type":"Feature","properties":{"NAME_2":"Jodhpur","district":"Jodhpur","STATE":"Rajasthan"},"geometry":{"type":"Polygon","coordinates":[[[72.8,26.1],[73.4,26.1],[73.4,26.6],[72.8,26.6],[72.8,26.1]]]}},
{"type":"Feature","properties":{"NAME_2":"Udaipur","district":"Udaipur","STATE":"Rajasthan"},"geometry":{"type":"Polygon","coordinates":[[[73.4,24.2],[74.0,24.2],[74.0,24.8],[73.4,24.8],[73.4,24.2]]]}},
{"type":"Feature","properties":{"NAME_2":"Kota","district":"Kota","STATE":"Rajasthan"},"geometry":{"type":"Polygon","coordinates":[[[75.6,25.0],[76.2,25.0],[76.2,25.5],[75.6,25.5],[75.6,25.0]]]}},
{"type":"Feature","properties":{"NAME_2":"Ahmedabad","district":"Ahmedabad","STATE":"Gujarat"},"geometry":{"type":"Polygon","coordinates":[[[72.4,22.7],[73.1,22.7],[73.1,23.2],[72.4,23.2],[72.4,22.7]]]}},
{"type":"Feature","properties":{"NAME_2":"Surat","district":"Surat","STATE":"Gujarat"},"geometry":{"type":"Polygon","coordinates":[[[72.5,21.0],[73.1,21.0],[73.1,21.5],[72.5,21.5],[72.5,21.0]]]}},
{"type":"Feature","properties":{"NAME_2":"Vadodara","district":"Vadodara","STATE":"Gujarat"},"geometry":{"type":"Polygon","coordinates":[[[73.0,22.0],[73.5,22.0],[73.5,22.5],[73.0,22.5],[73.0,22.0]]]}},
{"type":"Feature","properties":{"NAME_2":"Rajkot","district":"Rajkot","STATE":"Gujarat"},"geometry":{"type":"Polygon","coordinates":[[[70.5,22.0],[71.2,22.0],[71.2,22.5],[70.5,22.5],[70.5,22.0]]]}},
{"type":"Feature","properties":{"NAME_2":"Bengaluru Urban","district":"Bengaluru Urban","STATE":"Karnataka"},"geometry":{"type":"Polygon","coordinates":[[[77.4,12.7],[77.8,12.7],[77.8,13.2],[77.4,13.2],[77.4,12.7]]]}},
{"type":"Feature","properties":{"NAME_2":"Mysuru","district":"Mysuru","STATE":"Karnataka"},"geometry":{"type":"Polygon","coordinates":[[[76.4,12.0],[76.9,12.0],[76.9,12.5],[76.4,12.5],[76.4,12.0]]]}},
{"type":"Feature","properties":{"NAME_2":"Chennai","district":"Chennai","STATE":"Tamil Nadu"},"geometry":{"type":"Polygon","coordinates":[[[80.1,12.9],[80.3,12.9],[80.3,13.2],[80.1,13.2],[80.1,12.9]]]}},
{"type":"Feature","properties":{"NAME_2":"Coimbatore","district":"Coimbatore","STATE":"Tamil Nadu"},"geometry":{"type":"Polygon","coordinates":[[[76.7,10.8],[77.3,10.8],[77.3,11.3],[76.7,11.3],[76.7,10.8]]]}},
{"type":"Feature","properties":{"NAME_2":"Hyderabad","district":"Hyderabad","STATE":"Telangana"},"geometry":{"type":"Polygon","coordinates":[[[78.3,17.2],[78.7,17.2],[78.7,17.6],[78.3,17.6],[78.3,17.2]]]}},
{"type":"Feature","properties":{"NAME_2":"Visakhapatnam","district":"Visakhapatnam","STATE":"Andhra Pradesh"},"geometry":{"type":"Polygon","coordinates":[[[83.1,17.5],[83.5,17.5],[83.5,17.9],[83.1,17.9],[83.1,17.5]]]}},
{"type":"Feature","properties":{"NAME_2":"Gurugram","district":"Gurugram","STATE":"Haryana"},"geometry":{"type":"Polygon","coordinates":[[[76.9,28.3],[77.1,28.3],[77.1,28.6],[76.9,28.6],[76.9,28.3]]]}},
{"type":"Feature","properties":{"NAME_2":"Faridabad","district":"Faridabad","STATE":"Haryana"},"geometry":{"type":"Polygon","coordinates":[[[77.2,28.2],[77.5,28.2],[77.5,28.5],[77.2,28.5],[77.2,28.2]]]}},
{"type":"Feature","properties":{"NAME_2":"Amritsar","district":"Amritsar","STATE":"Punjab"},"geometry":{"type":"Polygon","coordinates":[[[74.7,31.5],[75.1,31.5],[75.1,31.9],[74.7,31.9],[74.7,31.5]]]}},
{"type":"Feature","properties":{"NAME_2":"Ludhiana","district":"Ludhiana","STATE":"Punjab"},"geometry":{"type":"Polygon","coordinates":[[[75.7,30.7],[76.1,30.7],[76.1,31.1],[75.7,31.1],[75.7,30.7]]]}},
{"type":"Feature","properties":{"NAME_2":"South Delhi","district":"South Delhi","STATE":"Delhi"},"geometry":{"type":"Polygon","coordinates":[[[77.1,28.4],[77.3,28.4],[77.3,28.6],[77.1,28.6],[77.1,28.4]]]}},
{"type":"Feature","properties":{"NAME_2":"North Delhi","district":"North Delhi","STATE":"Delhi"},"geometry":{"type":"Polygon","coordinates":[[[77.1,28.7],[77.3,28.7],[77.3,28.9],[77.1,28.9],[77.1,28.7]]]}},
{"type":"Feature","properties":{"NAME_2":"East Delhi","district":"East Delhi","STATE":"Delhi"},"geometry":{"type":"Polygon","coordinates":[[[77.2,28.6],[77.4,28.6],[77.4,28.75],[77.2,28.75],[77.2,28.6]]]}},
{"type":"Feature","properties":{"NAME_2":"Thiruvananthapuram","district":"Thiruvananthapuram","STATE":"Kerala"},"geometry":{"type":"Polygon","coordinates":[[[76.7,8.4],[77.1,8.4],[77.1,8.8],[76.7,8.8],[76.7,8.4]]]}},
{"type":"Feature","properties":{"NAME_2":"Ernakulam","district":"Ernakulam","STATE":"Kerala"},"geometry":{"type":"Polygon","coordinates":[[[76.1,9.7],[76.6,9.7],[76.6,10.2],[76.1,10.2],[76.1,9.7]]]}},
{"type":"Feature","properties":{"NAME_2":"Bhubaneswar","district":"Bhubaneswar","STATE":"Odisha"},"geometry":{"type":"Polygon","coordinates":[[[85.6,20.1],[85.9,20.1],[85.9,20.4],[85.6,20.4],[85.6,20.1]]]}},
{"type":"Feature","properties":{"NAME_2":"Ranchi","district":"Ranchi","STATE":"Jharkhand"},"geometry":{"type":"Polygon","coordinates":[[[85.1,23.2],[85.5,23.2],[85.5,23.6],[85.1,23.6],[85.1,23.2]]]}},
{"type":"Feature","properties":{"NAME_2":"Raipur","district":"Raipur","STATE":"Chhattisgarh"},"geometry":{"type":"Polygon","coordinates":[[[81.4,21.1],[81.8,21.1],[81.8,21.5],[81.4,21.5],[81.4,21.1]]]}},
{"type":"Feature","properties":{"NAME_2":"Guwahati","district":"Guwahati","STATE":"Assam"},"geometry":{"type":"Polygon","coordinates":[[[91.5,26.0],[91.8,26.0],[91.8,26.3],[91.5,26.3],[91.5,26.0]]]}},
{"type":"Feature","properties":{"NAME_2":"Bhopal","district":"Bhopal","STATE":"Madhya Pradesh"},"geometry":{"type":"Polygon","coordinates":[[[77.2,23.0],[77.6,23.0],[77.6,23.4],[77.2,23.4],[77.2,23.0]]]}},
{"type":"Feature","properties":{"NAME_2":"Indore","district":"Indore","STATE":"Madhya Pradesh"},"geometry":{"type":"Polygon","coordinates":[[[75.6,22.5],[76.0,22.5],[76.0,22.9],[75.6,22.9],[75.6,22.5]]]}}
]}
